CCSDS_OMM_VERS = 2.0
CREATION_DATE  = 
ORIGINATOR     = 

OBJECT_NAME    = SL-3 R/B
OBJECT_ID      = 1982-079B
CENTER_NAME    = EARTH
REF_FRAME      = TEME
TIME_SYSTEM    = UTC
MEAN_ELEMENT_THEORY = SGP/SGP4

EPOCH          = 2026-03-10T21:55:44.802336
MEAN_MOTION    = 15.24822006
ECCENTRICITY   = .00250714
INCLINATION    = 81.1479
RA_OF_ASC_NODE = 191.6319
ARG_OF_PERICENTER = 160.7361
MEAN_ANOMALY   = 199.4827

EPHEMERIS_TYPE = 0
CLASSIFICATION_TYPE = U
NORAD_CAT_ID   = 13403
ELEMENT_SET_NO = 999
REV_AT_EPOCH   = 37788
BSTAR          = .30932481E-3
MEAN_MOTION_DOT = .7772E-4
MEAN_MOTION_DDOT = 0

CCSDS_OMM_VERS = 2.0
CREATION_DATE  = 
ORIGINATOR     = 

OBJECT_NAME    = SL-14 R/B
OBJECT_ID      = 1982-092B
CENTER_NAME    = EARTH
REF_FRAME      = TEME
TIME_SYSTEM    = UTC
MEAN_ELEMENT_THEORY = SGP/SGP4

EPOCH          = 2026-03-10T17:33:47.978784
MEAN_MOTION    = 14.86667399
ECCENTRICITY   = .00189599
INCLINATION    = 82.5693
RA_OF_ASC_NODE = 140.4249
ARG_OF_PERICENTER = 299.8226
MEAN_ANOMALY   = 182.1227

EPHEMERIS_TYPE = 0
CLASSIFICATION_TYPE = U
NORAD_CAT_ID   = 13553
ELEMENT_SET_NO = 999
REV_AT_EPOCH   = 32908
BSTAR          = .56327565E-4
MEAN_MOTION_DOT = .526E-5
MEAN_MOTION_DDOT = 0

CCSDS_OMM_VERS = 2.0
CREATION_DATE  = 
ORIGINATOR     = 

OBJECT_NAME    = SL-3 R/B
OBJECT_ID      = 1983-010B
CENTER_NAME    = EARTH
REF_FRAME      = TEME
TIME_SYSTEM    = UTC
MEAN_ELEMENT_THEORY = SGP/SGP4

EPOCH          = 2026-03-10T20:39:51.456672
MEAN_MOTION    = 15.46405328
ECCENTRICITY   = .00178336
INCLINATION    = 81.1060
RA_OF_ASC_NODE = 0.8115
ARG_OF_PERICENTER = 47.3267
MEAN_ANOMALY   = 312.9477

EPHEMERIS_TYPE = 0
CLASSIFICATION_TYPE = U
NORAD_CAT_ID   = 13819
ELEMENT_SET_NO = 999
REV_AT_EPOCH   = 35812
BSTAR          = .3860592E-3
MEAN_MOTION_DOT = .19259E-3
MEAN_MOTION_DDOT = 0

CCSDS_OMM_VERS = 2.0
CREATION_DATE  = 
ORIGINATOR     = 

OBJECT_NAME    = SL-3 R/B
OBJECT_ID      = 1983-075B
CENTER_NAME    = EARTH
REF_FRAME      = TEME
TIME_SYSTEM    = UTC
MEAN_ELEMENT_THEORY = SGP/SGP4

EPOCH          = 2026-03-10T23:42:40.295232
MEAN_MOTION    = 15.38453777
ECCENTRICITY   = .00202308
INCLINATION    = 97.6147
RA_OF_ASC_NODE = 74.6144
ARG_OF_PERICENTER = 220.9566
MEAN_ANOMALY   = 139.0160

EPHEMERIS_TYPE = 0
CLASSIFICATION_TYPE = U
NORAD_CAT_ID   = 14208
ELEMENT_SET_NO = 999
REV_AT_EPOCH   = 33035
BSTAR          = .33322834E-3
MEAN_MOTION_DOT = .12646E-3
MEAN_MOTION_DDOT = 0

CCSDS_OMM_VERS = 2.0
CREATION_DATE  = 
ORIGINATOR     = 

OBJECT_NAME    = COSMOS 1536
OBJECT_ID      = 1984-013A
CENTER_NAME    = EARTH
REF_FRAME      = TEME
TIME_SYSTEM    = UTC
MEAN_ELEMENT_THEORY = SGP/SGP4

EPOCH          = 2026-03-10T13:45:57.184128
MEAN_MOTION    = 15.23837563
ECCENTRICITY   = .00124736
INCLINATION    = 82.5430
RA_OF_ASC_NODE = 106.9720
ARG_OF_PERICENTER = 279.7072
MEAN_ANOMALY   = 80.2756

EPHEMERIS_TYPE = 0
CLASSIFICATION_TYPE = U
NORAD_CAT_ID   = 14699
ELEMENT_SET_NO = 999
REV_AT_EPOCH   = 27275
BSTAR          = .29819595E-3
MEAN_MOTION_DOT = .7233E-4
MEAN_MOTION_DDOT = 0

CCSDS_OMM_VERS = 2.0
CREATION_DATE  = 
ORIGINATOR     = 

OBJECT_NAME    = SL-14 R/B
OBJECT_ID      = 1984-027B
CENTER_NAME    = EARTH
REF_FRAME      = TEME
TIME_SYSTEM    = UTC
MEAN_ELEMENT_THEORY = SGP/SGP4

EPOCH          = 2026-03-10T21:43:30.807552
MEAN_MOTION    = 14.85977942
ECCENTRICITY   = .00172367
INCLINATION    = 82.5388
RA_OF_ASC_NODE = 243.8723
ARG_OF_PERICENTER = 333.7179
MEAN_ANOMALY   = 26.3161

EPHEMERIS_TYPE = 0
CLASSIFICATION_TYPE = U
NORAD_CAT_ID   = 14820
ELEMENT_SET_NO = 999
REV_AT_EPOCH   = 24781
BSTAR          = .6878047E-4
MEAN_MOTION_DOT = .626E-5
MEAN_MOTION_DDOT = 0

CCSDS_OMM_VERS = 2.0
CREATION_DATE  = 
ORIGINATOR     = 

OBJECT_NAME    = SL-8 R/B
OBJECT_ID      = 1985-006B
CENTER_NAME    = EARTH
REF_FRAME      = TEME
TIME_SYSTEM    = UTC
MEAN_ELEMENT_THEORY = SGP/SGP4

EPOCH          = 2026-03-10T23:59:19.221792
MEAN_MOTION    = 14.37784038
ECCENTRICITY   = .00184044
INCLINATION    = 74.0432
RA_OF_ASC_NODE = 258.7380
ARG_OF_PERICENTER = 176.2614
MEAN_ANOMALY   = 346.0057

EPHEMERIS_TYPE = 0
CLASSIFICATION_TYPE = U
NORAD_CAT_ID   = 15483
ELEMENT_SET_NO = 999
REV_AT_EPOCH   = 15421
BSTAR          = .133119E-3
MEAN_MOTION_DOT = .375E-5
MEAN_MOTION_DDOT = 0

CCSDS_OMM_VERS = 2.0
CREATION_DATE  = 
ORIGINATOR     = 

OBJECT_NAME    = SL-12 R/B(2)
OBJECT_ID      = 1985-042D
CENTER_NAME    = EARTH
REF_FRAME      = TEME
TIME_SYSTEM    = UTC
MEAN_ELEMENT_THEORY = SGP/SGP4

EPOCH          = 2026-03-10T18:30:23.471136
MEAN_MOTION    = 14.21982645
ECCENTRICITY   = .00331868
INCLINATION    = 71.1063
RA_OF_ASC_NODE = 85.4437
ARG_OF_PERICENTER = 126.3623
MEAN_ANOMALY   = 46.0282

EPHEMERIS_TYPE = 0
CLASSIFICATION_TYPE = U
NORAD_CAT_ID   = 15772
ELEMENT_SET_NO = 999
REV_AT_EPOCH   = 11454
BSTAR          = .56979455E-4
MEAN_MOTION_DOT = .79E-6
MEAN_MOTION_DDOT = 0

CCSDS_OMM_VERS = 2.0
CREATION_DATE  = 
ORIGINATOR     = 

OBJECT_NAME    = SL-14 R/B
OBJECT_ID      = 1985-069B
CENTER_NAME    = EARTH
REF_FRAME      = TEME
TIME_SYSTEM    = UTC
MEAN_ELEMENT_THEORY = SGP/SGP4

EPOCH          = 2026-03-10T22:58:00.499008
MEAN_MOTION    = 14.86434815
ECCENTRICITY   = .00185895
INCLINATION    = 82.5288
RA_OF_ASC_NODE = 23.7414
ARG_OF_PERICENTER = 183.4648
MEAN_ANOMALY   = 176.6444

EPHEMERIS_TYPE = 0
CLASSIFICATION_TYPE = U
NORAD_CAT_ID   = 15945
ELEMENT_SET_NO = 999
REV_AT_EPOCH   = 17302
BSTAR          = .73046036E-4
MEAN_MOTION_DOT = .671E-5
MEAN_MOTION_DDOT = 0

CCSDS_OMM_VERS = 2.0
CREATION_DATE  = 
ORIGINATOR     = 

OBJECT_NAME    = SL-16 R/B
OBJECT_ID      = 1985-097B
CENTER_NAME    = EARTH
REF_FRAME      = TEME
TIME_SYSTEM    = UTC
MEAN_ELEMENT_THEORY = SGP/SGP4

EPOCH          = 2026-03-10T22:14:07.978272
MEAN_MOTION    = 14.16598534
ECCENTRICITY   = .00098919
INCLINATION    = 71.0026
RA_OF_ASC_NODE = 137.9509
ARG_OF_PERICENTER = 258.3372
MEAN_ANOMALY   = 274.4763

EPHEMERIS_TYPE = 0
CLASSIFICATION_TYPE = U
NORAD_CAT_ID   = 16182
ELEMENT_SET_NO = 999
REV_AT_EPOCH   = 8740
BSTAR          = -.69449923E-4
MEAN_MOTION_DOT = -.187E-5
MEAN_MOTION_DDOT = 0

CCSDS_OMM_VERS = 2.0
CREATION_DATE  = 
ORIGINATOR     = 

OBJECT_NAME    = SL-14 R/B
OBJECT_ID      = 1986-006B
CENTER_NAME    = EARTH
REF_FRAME      = TEME
TIME_SYSTEM    = UTC
MEAN_ELEMENT_THEORY = SGP/SGP4

EPOCH          = 2026-03-10T22:24:30.271680
MEAN_MOTION    = 14.86816820
ECCENTRICITY   = .00750569
INCLINATION    = 82.5235
RA_OF_ASC_NODE = 258.5660
ARG_OF_PERICENTER = 268.5796
MEAN_ANOMALY   = 90.6822

EPHEMERIS_TYPE = 0
CLASSIFICATION_TYPE = U
NORAD_CAT_ID   = 16496
ELEMENT_SET_NO = 999
REV_AT_EPOCH   = 14939
BSTAR          = .82347025E-4
MEAN_MOTION_DOT = .798E-5
MEAN_MOTION_DDOT = 0

CCSDS_OMM_VERS = 2.0
CREATION_DATE  = 
ORIGINATOR     = 

OBJECT_NAME    = COSMOS 1743
OBJECT_ID      = 1986-034A
CENTER_NAME    = EARTH
REF_FRAME      = TEME
TIME_SYSTEM    = UTC
MEAN_ELEMENT_THEORY = SGP/SGP4

EPOCH          = 2026-03-10T23:46:03.503712
MEAN_MOTION    = 15.58650562
ECCENTRICITY   = .00015154
INCLINATION    = 82.5297
RA_OF_ASC_NODE = 72.4658
ARG_OF_PERICENTER = 279.6441
MEAN_ANOMALY   = 80.4643

EPHEMERIS_TYPE = 0
CLASSIFICATION_TYPE = U
NORAD_CAT_ID   = 16719
ELEMENT_SET_NO = 999
REV_AT_EPOCH   = 18045
BSTAR          = .50089778E-3
MEAN_MOTION_DOT = .38585E-3
MEAN_MOTION_DDOT = 0

