SL-3 R/B                
1 13403U 82079B   26069.91371299  .00007772  00000+0  30932-3 0  9993
2 13403  81.1479 191.6319 0025071 160.7361 199.4827 15.24822006377885
SL-14 R/B               
1 13553U 82092B   26069.73180531  .00000526  00000+0  56328-4 0  9999
2 13553  82.5693 140.4249 0018959 299.8226 182.1227 14.86667399329080
SL-3 R/B                
1 13819U 83010B   26069.86101223  .00019259  00000+0  38606-3 0  9991
2 13819  81.1060   0.8115 0017833  47.3267 312.9477 15.46405328358126
SL-3 R/B                
1 14208U 83075B   26069.98796638  .00012646  00000+0  33323-3 0  9992
2 14208  97.6147  74.6144 0020230 220.9566 139.0160 15.38453777330358
COSMOS 1536             
1 14699U 84013A   26069.57357852  .00007233  00000+0  29820-3 0  9998
2 14699  82.5430 106.9720 0012473 279.7072  80.2756 15.23837563272753
SL-14 R/B               
1 14820U 84027B   26069.90521768  .00000626  00000+0  68780-4 0  9993
2 14820  82.5388 243.8723 0017236 333.7179  26.3161 14.85977942247819
SL-8 R/B                
1 15483U 85006B   26069.99952803  .00000375  00000+0  13312-3 0  9995
2 15483  74.0432 258.7380 0018404 176.2614 346.0057 14.37784038154213
SL-12 R/B(2)            
1 15772U 85042D   26069.77110499  .00000079  00000+0  56979-4 0  9997
2 15772  71.1063  85.4437 0033186 126.3623  46.0282 14.21982645114546
SL-14 R/B               
1 15945U 85069B   26069.95695022  .00000671  00000+0  73046-4 0  9990
2 15945  82.5288  23.7414 0018589 183.4648 176.6444 14.86434815173024
SL-16 R/B               
1 16182U 85097B   26069.92648123 -.00000187  00000+0 -69450-4 0  9990
2 16182  71.0026 137.9509 0009891 258.3372 274.4763 14.16598534 87405
SL-14 R/B               
1 16496U 86006B   26069.93368370  .00000798  00000+0  82347-4 0  9999
2 16496  82.5235 258.5660 0075056 268.5796  90.6822 14.86816820149398
COSMOS 1743             
1 16719U 86034A   26069.99031833  .00038585  00000+0  50090-3 0  9999
2 16719  82.5297  72.4658 0001515 279.6441  80.4643 15.58650562180452
